STARLINK-31250          
1 58839U 24017P   26068.64585435  .00000002  00000+0  12177-4 0  9992
2 58839  53.1603 194.2827 0000738  71.9336 288.1745 15.30199938120144
ION SCV-017             
1 63230U 25052W   26068.71648816  .00006457  00000+0  24539-3 0  9998
2 63230  97.4016 324.7516 0023746  44.9875 315.3282 15.26881798 54851
