[{"OBJECT_NAME":"STARLINK-31250","OBJECT_ID":"2024-017P","EPOCH":"2026-03-09T15:30:01.815840","MEAN_MOTION":15.30199938,"ECCENTRICITY":7.38e-5,"INCLINATION":53.1603,"RA_OF_ASC_NODE":194.2827,"ARG_OF_PERICENTER":71.9336,"MEAN_ANOMALY":288.1745,"EPHEMERIS_TYPE":0,"CLASSIFICATION_TYPE":"U","NORAD_CAT_ID":58839,"ELEMENT_SET_NO":999,"REV_AT_EPOCH":12014,"BSTAR":1.2177e-5,"MEAN_MOTION_DOT":2.0e-8,"MEAN_MOTION_DDOT":0},{"OBJECT_NAME":"ION SCV-017","OBJECT_ID":"2025-052W","EPOCH":"2026-03-09T17:11:44.577024","MEAN_MOTION":15.26881798,"ECCENTRICITY":0.0023746,"INCLINATION":97.4016,"RA_OF_ASC_NODE":324.7516,"ARG_OF_PERICENTER":44.9875,"MEAN_ANOMALY":315.3282,"EPHEMERIS_TYPE":0,"CLASSIFICATION_TYPE":"U","NORAD_CAT_ID":63230,"ELEMENT_SET_NO":999,"REV_AT_EPOCH":5485,"BSTAR":0.00024539061,"MEAN_MOTION_DOT":6.457e-5,"MEAN_MOTION_DDOT":0}]
